ASTROCAST-0401          
1 55110U 23001DF  26068.71172895  .00009750  00000+0  37868-3 0  9995
2 55110  97.5547 160.5206 0008142 188.4231 171.6872 15.26258462176022
STARLINK-32774          
1 62737U 25014C   26068.32059886  .00036440  00000+0  13263-2 0  9993
2 62737  43.0002 159.7013 0002823 289.4482  70.6064 15.27599235 63161
