[{"OBJECT_NAME":"ASTROCAST-0401","OBJECT_ID":"2023-001DF","EPOCH":"2026-03-09T17:04:53.382144","MEAN_MOTION":15.26258462,"ECCENTRICITY":0.00081423,"INCLINATION":97.5547,"RA_OF_ASC_NODE":160.5206,"ARG_OF_PERICENTER":188.4231,"MEAN_ANOMALY":171.6872,"EPHEMERIS_TYPE":0,"CLASSIFICATION_TYPE":"U","NORAD_CAT_ID":55110,"ELEMENT_SET_NO":999,"REV_AT_EPOCH":17602,"BSTAR":0.00037868349,"MEAN_MOTION_DOT":9.75e-5,"MEAN_MOTION_DDOT":0},{"OBJECT_NAME":"STARLINK-32774","OBJECT_ID":"2025-014C","EPOCH":"2026-03-09T07:41:39.741504","MEAN_MOTION":15.27599235,"ECCENTRICITY":0.00028234,"INCLINATION":43.0002,"RA_OF_ASC_NODE":159.7013,"ARG_OF_PERICENTER":289.4482,"MEAN_ANOMALY":70.6064,"EPHEMERIS_TYPE":0,"CLASSIFICATION_TYPE":"U","NORAD_CAT_ID":62737,"ELEMENT_SET_NO":999,"REV_AT_EPOCH":6316,"BSTAR":0.0013263468,"MEAN_MOTION_DOT":0.0003644,"MEAN_MOTION_DDOT":0}]
